ZHOU ENLAI              
1 43156U 18008B   21198.57941359  .00001188  00000-0  72521-4 0  9999
2 43156  97.4052 262.4763 0013268 218.7062 277.6760 15.12134923192563
QUANTUTONG 1            
1 43158U 18008D   21198.18918278  .00000667  00000-0  42958-4 0  9994
2 43158  97.3980 260.6289 0011912 223.0369 202.7313 15.11548486192431
S-NET D                 
1 43186U 18014G   21198.29985539  .00000563  00000-0  53805-4 0  9996
2 43186  97.6753 105.3502 0010607 352.0120   8.0931 14.97091272188767
S-NET B                 
1 43187U 18014H   21198.29978434  .00000571  00000-0  54447-4 0  9995
2 43187  97.6757 105.3145 0010625 351.9681   8.1369 14.97091269188767
S-NET A                 
1 43188U 18014J   21198.36669636  .00000569  00000-0  54330-4 0  9993
2 43188  97.6761 105.4262 0010620 351.9386   8.1663 14.97090244188771
S-NET C                 
1 43189U 18014K   21198.30034224  .00000537  00000-0  51540-4 0  9992
2 43189  97.6757 105.3075 0010642 351.8948   8.2100 14.97090085187314
FENGMANIU-1 (FMN-1)     
1 43192U 18015A   21198.60363537  .00002911  00000-0  10812-3 0  9996
2 43192  97.4932 334.1295 0015568 132.2780 356.5168 15.28278402192195
SHAONIAN XING           
1 43199U 18015H   21198.57293168  .00002032  00000-0  77624-4 0  9990
2 43199  97.4714 331.1434 0016961 142.1844 346.7251 15.27696089192245
LUOJIA-1 01             
1 43485U 18048B   21198.48153885  .00000162  00000-0  30391-4 0  9997
2 43485  97.9614 279.7599 0010731 193.5942 166.4981 14.76869724168425
SURFSAT                 
1 43614U 18070B   21198.32569291  .00004017  00000-0  92923-4 0  9993
2 43614  93.0343 318.4379 0011594 242.0695 117.9387 15.42458913159277
CP7 (DAVE)              
1 43615U 18070C   21198.34869880  .00003768  00000-0  88067-4 0  9999
2 43615  93.0349 318.3997 0011797 242.2662 117.7398 15.42156721159261
ELFIN-B                 
1 43616U 18070D   21198.31340732  .00006557  00000-0  13796-3 0  9992
2 43616  93.0300 318.6117 0011685 238.5542 121.4573 15.45245171159388
ELFIN-A                 
1 43617U 18070E   21198.32853307  .00007008  00000-0  14496-3 0  9991
2 43617  93.0349 319.4933 0011195 234.3185 125.7031 15.45747560159408
STARS-ME                
1 43640U 98067PQ  21177.48090856  .06251270  12411-4  46174-3 0  9996
2 43640  51.6078 176.1291 0003401 286.8094  73.2559 16.39860287155785
CZ-4B R/B               
1 43656U 18081B   21198.27378517 -.00000030  00000-0  82254-5 0  9993
2 43656  99.3667 300.7989 0208941  27.5560 333.6514 14.30472708142436
CUBEBEL-1 (BSUSAT-1)    
1 43666U 18083E   21198.47849926  .00001290  00000-0  63892-4 0  9999
2 43666  97.4526 226.4666 0016281  66.6449  43.1075 15.19457284150579
CHANGSHAGAOXIN (TY 4-01)
1 43669U 18083H   21198.49766297  .00001043  00000-0  54215-4 0  9998
2 43669  97.4438 223.4667 0012322  63.7857  73.4454 15.18210093150442
TEN-KOH                 
1 43677U 18084G   21198.32982575  .00000066  00000-0  12720-4 0  9998
2 43677  97.9239 321.4498 0014663 298.8167  61.1578 14.90486297147752
DIWATA-2B               
1 43678U 18084H   21198.50364193 -.00000017  00000-0  41229-5 0  9993
2 43678  97.9281 323.9431 0009057 318.7814  41.2727 14.91762706147912
STARS-AO                
1 43679U 18084J   21198.33082079  .00000041  00000-0  96550-5 0  9998
2 43679  97.9317 325.0317 0008198 326.7236  33.3466 14.92544385147948
AUTCUBE 2               
1 43681U 18084K   21198.30221294  .00000356  00000-0  40770-4 0  9993
2 43681  97.9282 324.0778 0008423 319.5178  40.5413 14.92111683147862
IRVINE01                
1 43693U 18088D   21198.39554020  .00003417  00000-0  13163-3 0  9991
2 43693  85.0349 175.0562 0013516 275.2126  84.7575 15.25871595149001
ES'HAIL 2               
1 43700U 18090A   21198.27977751  .00000147  00000-0  00000-0 0  9990
2 43700   0.0207  50.1907 0001577  86.5350 285.1173  1.00268398  9669
FACSAT-1                
1 43721U 18096C   21198.49522056  .00002245  00000-0  81993-4 0  9992
2 43721  97.3842 275.4071 0017140 159.5033 256.8040 15.29046363146710
CENTAURI-2              
1 43722U 18096D   21198.17125525  .00003002  00000-0  10493-3 0  9996
2 43722  97.3868 275.9447 0017099 159.4087 200.7847 15.30214032146706
3CAT-1                  
1 43728U 18096K   21198.51044772  .00002778  00000-0  96418-4 0  9995
2 43728  97.3875 276.8682 0016816 161.6952 324.4035 15.30517329146789
INNOSAT-2               
1 43738U 18096V   21198.49032767  .00004498  00000-0  13892-3 0  9999
2 43738  97.3928 280.2220 0021876 159.3705 331.0714 15.33835580147007
REAKTOR HELLO WORLD     
1 43743U 18096AA  21198.35990155  .00001663  00000-0  61635-4 0  9994
2 43743  97.3852 275.6450 0017568 165.2941 194.8814 15.28934711146705
ELYSIUM STAR 2 & LFF    
1 43760U 18099C   21198.41823143  .00001134  00000-0  10506-3 0  9998
2 43760  97.6695 269.1111 0012126 311.6626  48.3557 14.96387926142994
2018-099D               
1 43761U 18099D   21198.46032987  .00000049  00000-0  96127-5 0  9991
2 43761  97.6640 268.4223 0013468 314.6185  45.3970 14.95316717142955
AISTECHSAT 2            
1 43768U 18099L   21198.15683017  .00000121  00000-0  16263-4 0  9993
2 43768  97.6610 266.9961 0010250 316.1329  43.9077 14.94933091142584
FOX-1CLIFF (AO-95)      
1 43770U 18099N   21198.42818203  .00000096  00000-0  13847-4 0  9999
2 43770  97.6638 267.9520 0013448 322.7458  37.2829 14.95360084142934
RANGE-A                 
1 43772U 18099Q   21198.18280837  .00000087  00000-0  12995-4 0  9993
2 43772  97.6723 268.7536 0012847 308.9446  51.0630 14.95665240142905
RANGE-B                 
1 43773U 18099R   21198.16822223 -.00000216  00000-0 -14427-4 0  9991
2 43773  97.6570 266.9913 0012279 309.8147  50.1992 14.95241401142889
2018-099T               
1 43775U 18099T   21198.16802062 -.00000207  00000-0 -13595-4 0  9997
2 43775  97.6640 267.9054 0013465 314.0308  45.9803 14.95309290142896
MOVE-II                 
1 43780U 18099Y   21198.17665325  .00000075  00000-0  11788-4 0  9996
2 43780  97.6655 268.2749 0012338 319.8360  40.1948 14.95981715142910
SNUSAT-2                
1 43782U 18099AA  21198.18847262  .00000195  00000-0  22684-4 0  9991
2 43782  97.6633 268.0693 0011448 308.1236  51.8952 14.95594345142911
SNUGLITE                
1 43784U 18099AC  21198.19434125  .00000459  00000-0  46253-4 0  9995
2 43784  97.6596 267.7937 0013786 315.7418  44.2700 14.95723490142935
ITASAT 1                
1 43786U 18099AE  21198.14086089  .00000682  00000-0  66371-4 0  9995
2 43786  97.6658 268.3698 0013845 315.6498  44.3613 14.95647508142928
KAZSCISAT-1             
1 43787U 18099AF  21198.18722082  .00000390  00000-0  39707-4 0  9999
2 43787  97.6566 267.5903 0012797 311.5832  48.4291 14.96151087142952
EAGLET-I                
1 43790U 18099AJ  21198.43597251 -.00000129  00000-0 -63430-5 0  9992
2 43790  97.6649 269.0827 0012402 319.4465  40.5831 14.95998540142698
ESEO                    
1 43792U 18099AL  21198.42554788  .00000071  00000-0  11528-4 0  9995
2 43792  97.6614 268.6411 0012129 316.9119  43.1152 14.95757844142741
CSIM-FD                 
1 43793U 18099AM  21198.43299357  .00000155  00000-0  18645-4 0  9995
2 43793  97.6649 269.0870 0011578 312.3070  47.7169 14.96649259142757
ASTROCAST 0.1           
1 43798U 18099AS  21198.18052870 -.00000113  00000-0 -49580-5 0  9998
2 43798  97.6651 269.0408 0011042 297.8649  62.1454 14.96225845142969
JY1SAT (JO-97)          
1 43803U 18099AX  21198.16663508 -.00000060  00000-0 -27368-6 0  9991
2 43803  97.6620 268.1435 0013928 315.8031  44.2077 14.95902630142935
SUOMI-100               
1 43804U 18099AY  21198.17272226 -.00000162  00000-0 -93473-5 0  9998
2 43804  97.6615 268.1138 0014050 315.5861  44.4233 14.95870648142945
AL-FARABI 2             
1 43805U 18099AZ  21198.36999218 -.00000033  00000-0  21936-5 0  9998
2 43805  97.6625 268.5418 0013822 315.2768  44.7225 14.96099660142987
CENTAURI-1              
1 43809U 18099BD  21198.18450761 -.00000019  00000-0  34638-5 0  9994
2 43809  97.6625 268.4337 0014085 316.1912  43.8191 14.95860956142641
CHOMPTT                 
1 43855U 18104G   21198.32871367  .00001097  00000-0  43291-4 0  9997
2 43855  85.0370 273.7014 0018431  42.5662 317.7006 15.24085024143649
DAVINCI                 
1 43857U 18104J   21198.36055981  .00003126  00000-0  12057-3 0  9999
2 43857  85.0315 273.3969 0016466  66.1440 294.1528 15.25737410143648
UWE-4                   
1 43880U 18111E   21198.26402875  .00000097  00000-0  13482-4 0  9998
2 43880  97.6845 105.4872 0012496  10.5675 349.5807 14.96904707139542
ZACUBE-2                
1 43907U 18111AH  21198.57277906  .00000604  00000-0  26667-4 0  9990
2 43907  97.2293  91.7002 0020956 181.8932 273.6468 15.25258622142225
MICRODRAGON             
1 43935U 19003D   21198.34458433  .00000846  00000-0  38364-4 0  9998
2 43935  97.1788 238.4879 0016078 282.1471  77.7965 15.23350718138653
AOBA VELOX-IV           
1 43940U 19003J   21198.44189413  .00002822  00000-0  10693-3 0  9994
2 43940  97.1756 241.4026 0020394 261.5172  98.3756 15.27510432138884
M6P                     
1 44109U 19018AF  21198.18423316  .00001822  00000-0  57034-4 0  9992
2 44109  97.4258 275.4588 0053971 246.3548 113.2024 15.33106868128017
SPOOQY-1                
1 44332U 98067QH  21198.19310443  .00052351  00000-0  28086-3 0  9995
2 44332  51.6320 132.2972 0004622  68.7375 291.4120 15.79727594118792
FORMOSAT 7-4            
1 44350U 19036M   21198.24083664  .00000818  00000-0  30433-4 0  9993
2 44350  23.9984 165.6280 0006210  48.1765 311.9268 15.07833779112791
PAINANI 1               
1 44365U 19037A   21198.07674136  .00003420  00000-0  87839-4 0  9995
2 44365  45.0051  92.6532 0004260  12.0527 348.0462 15.41534425115340
ACRUX 1                 
1 44369U 19037E   21197.88891427  .00007734  00000-0  15143-3 0  9991
2 44369  45.0061  69.4682 0008752   1.3132 358.7781 15.47989043115557
